[{"OBJECT_NAME":"STARLINK-34968","OBJECT_ID":"2025-184D","EPOCH":"2026-03-09T17:00:58.645440","MEAN_MOTION":15.05647443,"ECCENTRICITY":9.017e-5,"INCLINATION":97.6025,"RA_OF_ASC_NODE":122.6783,"ARG_OF_PERICENTER":93.8917,"MEAN_ANOMALY":266.2413,"EPHEMERIS_TYPE":0,"CLASSIFICATION_TYPE":"U","NORAD_CAT_ID":65276,"ELEMENT_SET_NO":999,"REV_AT_EPOCH":3130,"BSTAR":0.00015362574,"MEAN_MOTION_DOT":2.156e-5,"MEAN_MOTION_DDOT":0},{"OBJECT_NAME":"COSMOS 2251 DEB","OBJECT_ID":"1993-036HX","EPOCH":"2026-03-09T21:31:03.673056","MEAN_MOTION":15.04193551,"ECCENTRICITY":0.00046843,"INCLINATION":74.0171,"RA_OF_ASC_NODE":332.1487,"ARG_OF_PERICENTER":332.3762,"MEAN_ANOMALY":27.7177,"EPHEMERIS_TYPE":0,"CLASSIFICATION_TYPE":"U","NORAD_CAT_ID":34036,"ELEMENT_SET_NO":999,"REV_AT_EPOCH":89876,"BSTAR":0.0040391987,"MEAN_MOTION_DOT":0.00056541,"MEAN_MOTION_DDOT":0}]
